CUBEBUG-2 (LO-74)
1 39440U 13066AA  26199.34309812  .00001985  00000-0  18660-3 0  9990
2 39440  97.8919 148.4608 0055583 284.7062  74.8001 14.93979922681641
FUNCUBE-1 (AO-73)
1 39444U 13066AE  26199.60636152  .00004251  00000-0  26257-3 0  9993
2 39444  97.8296 171.7194 0037997  96.6399 263.9156 15.09845015684406
UWE-3
1 39446U 13066AG  26198.82646848  .00002032  00000-0  17707-3 0  9996
2 39446  97.8719 155.1139 0047603 215.4548 144.3506 14.97209607682164
UNISAT-6
1 40012U 14033C   26199.66464044  .00000958  00000-0  10771-3 0  9990
2 40012  97.7914 351.8313 0043894 326.1147  33.7267 14.88373922650840
DUCHIFAT-1
1 40021U 14033M   26199.16331792  .00093801  00000-0  72542-3 0  9991
2 40021  98.0423 262.8485 0003259 233.3410 126.7552 15.71597676660605
LILACSAT-2
1 40908U 15049K   26199.60796391  .00010119  00000-0  16702-3 0  9999
2 40908  97.4622 237.6602 0008553 131.5470 228.6518 15.52434844600627
CAS-2T & KS-1Q
1 41847U 16066G   26199.19832897  .00000451  00000-0  71852-4 0  9994
2 41847  98.3813 274.5797 0342101  35.6619 326.6912 14.44773637509278
FOX-1B (AO-91)
1 43017U 17073E   26199.55799028  .00003378  00000-0  14895-3 0  9996
2 43017  97.4661  66.1335 0148366 219.7444 139.2844 15.13088152470133
FUNCUBE-3 (EO-79)/QB50P1
1 40025U 14033R   26199.31896595  .00004488  00000-0  21986-3 0  9998
2 40025  98.0968 212.6585 0010487 115.5699 244.6619 15.18693321657759
FOX-1A (AO-85)
1 40967U 15058D   26199.33967264  .00001647  00000-0  15555-3 0  9994
2 40967  64.7725 182.1599 0132624  44.6185 316.5509 14.91099552118217
DIWATA-2B (PO-101)
1 43678U 18084H   26199.57843076  .00001088  00000-0  91320-4 0  9992
2 43678  98.1212  37.1613 0012646  74.0415 286.2200 15.00570889420924
ESHAIL-2
1 43700U 18090A   26199.48476215  .00000137  00000-0  00000-0 0  9997
2 43700   0.0159  76.3340 0002346  81.6613 338.5852  1.00272876 27998
ITASAT-1
1 43786U 18099AE  26199.57063524  .00003150  00000-0  15183-3 0  9994
2 43786  97.4007 250.4605 0011101 236.9564 123.0605 15.19404074417675
FOX-1CLIFF (AO-95)
1 43770U 18099N   26199.13826366  .00005977  00000-0  22607-3 0  9998
2 43770  97.4363 259.2809 0007475 227.7066 132.3540 15.27309721417943
JY1SAT (JO-97)
1 43803U 18099AX  26199.14296429  .00009509  00000-0  28599-3 0  9998
2 43803  97.4106 262.1024 0007100 149.2378 210.9282 15.34577339418370
UWE-4
1 43880U 18111E   26199.26142814  .00018713  00000-0  36002-3 0  9994
2 43880  97.5839 129.1275 0006584 182.8842 177.2370 15.47940806415583
CAS-6 (TO-108)
1 44881U 19093C   26199.61382568  .00000450  00000-0  56829-4 0  9996
2 44881  97.7517 271.0778 0013246 350.0904  10.0049 14.86562759356081
DOSAAF-85 (RS-44)
1 44909U 19096E   26199.59010924  .00000019  00000-0  24230-4 0  9993
2 44909  82.5244 318.8390 0218479  71.0976 291.3672 12.79748908306369
SALSAT (TUBSAT 22)
1 46495U 20068K   26199.01462697  .00004061  00000-0  14177-3 0  9990
2 46495  97.8861 203.9671 0009496 182.8082 177.3106 15.30195257320079
CAMSAT XW-3 (CAS-9)
1 50466U 21131B   26199.64002398  .00000351  00000-0  12212-3 0  9998
2 50466  98.4990 291.8602 0004389  21.7641 338.3734 14.41383938239644
ROBUSTA 1F (MTCUBE-2)
1 53109U 22080E   26198.22212605 -.00000003  00000-0  00000+0 0  9999
2 53109  70.1407 287.8015 0009072 282.9900  76.9746  6.42583336 93997
UMKA-1 (RS40S)
1 57172U 23091G   26199.60656908  .00002834  00000-0  13021-3 0  9991
2 57172  97.5030 258.1868 0012696  18.0786 342.0898 15.21142062168788
CUBESX-HSE-3 (RS42S)
1 57178U 23091N   26199.59906879  .00006655  00000-0  21819-3 0  9999
2 57178  97.5070 265.5972 0009300 349.4248  10.6796 15.31932082169234
MONITOR-3 (RS58S)
1 57180U 23091Q   26199.56350174  .00004853  00000-0  17802-3 0  9995
2 57180  97.5062 263.2499 0010644 357.5653   2.5533 15.28408885169087
MONITOR-4 (RS57S)
1 57182U 23091S   26199.60627325  .00005037  00000-0  18414-3 0  9992
2 57182  97.5055 263.2659 0010641 357.8685   2.2507 15.28496473169093
MONITOR-2 (RS39S)
1 57184U 23091U   26199.60208352  .00002163  00000-0  10603-3 0  9998
2 57184  97.5052 257.6843 0011052  12.5861 347.5647 15.19170926168723
SVYATOBOR-1 (RS60S)
1 57187U 23091X   26199.64733869  .00004241  00000-0  16231-3 0  9993
2 57187  97.5068 263.6464 0008381 352.0406   8.0699 15.27094642169116
VIZARD-METEO (RS38S)
1 57189U 23091Z   26199.60270408  .00008645  00000-0  24157-3 0  9994
2 57189  97.5071 269.7367 0005373 324.8977  35.1912 15.36936812169516
UTMN-2 (RS27S)
1 57203U 23091AP  26199.53446907  .00006583  00000-0  21061-3 0  9992
2 57203  97.5067 267.2035 0006416 337.0449  23.0505 15.32747631169342
POLYTECH UNIVERSE-3 (RS46S)
1 57191U 23091AB  26199.62498859  .00002378  00000-0  11537-3 0  9996
2 57191  97.5026 257.2113 0015749  26.2858 333.9172 15.19384054168724
